STARLINK-1922
1 46753U 20074Q   26061.16668981  .00210509  00000+0  23377-2 0  9998
2 46753  53.0471 320.5551 0003197  30.9561  60.5393 15.61717345  5878
STARLINK-1547
1 46347U 20062Y   26061.16668981  .00192572  00000+0  21432-2 0  9993
2 46347  53.0389 315.6393 0006405 117.9762 257.3229 15.61709456  5900
STARLINK-1068
1 44772U 19074BM  26061.13961633  .00122816  00000+0  13911-2 0  9998
2 44772  53.0487 216.8103 0002740 207.0535 153.0335 15.61533969347663
STARLINK-1319
1 45379U 20019V   26061.25002314  .01235071  00000+0  13040-1 0  9999
2 45379  53.0452 166.1944 0001562  96.8006 205.6463 15.61195913  5960
STARLINK-1665
1 46356U 20062AH  26061.16668981  .00146226  00000+0  16737-2 0  9990
2 46356  53.0442  13.6414 0002350 308.8632  98.5652 15.61169900  5955
STARLINK-1741
1 46567U 20070AM  26061.16668981  .00204504  00000+0  23382-2 0  9991
2 46567  53.0435 154.5623 0004318 164.8683 118.8974 15.60978637  5968
STARLINK-1143
1 45179U 20012B   26061.25002314  .00203503  00000+0  23327-2 0  9994
2 45179  53.0478   6.2516 0007014  69.4159 171.2791 15.60900920  5882
STARLINK-1531
1 46572U 20070AS  26061.16668981  .00211789  00000+0  24247-2 0  9991
2 46572  53.0553 176.3137 0009594 220.7040  49.4126 15.60880308  5951
STARLINK-1905
1 46746U 20074H   26061.10315267  .00166355  00000+0  19223-2 0  9994
2 46746  53.0489 320.7287 0001599  46.9523 313.1623 15.60847621296028
STARLINK-1411
1 45706U 20035BB  26061.13967648  .00101934  00000+0  12119-2 0  9994
2 45706  53.0456  18.2832 0005417  94.5897 265.5735 15.60351905318741
STARLINK-1234
1 45190U 20012N   26061.25002314  .00180145  00000+0  21228-2 0  9991
2 45190  53.0454   1.6182 0003774 305.1236 187.6074 15.60280965  5977
